CTC1_L_00196001-01
1 73213U 25250QV  26070.40833333  .00000000  00000+0  00000-0 0  9991
2 73213  55.0000   0.0000 0000000   0.0000   0.0000 13.56072486    11
CTC1_L_00196001-02
1 73214U 26163C   26070.40833333  .00000000  00000+0  00000-0 0  9996
2 73214  55.0000   0.0000 0000000   0.0000  90.0000 13.56072486    11
CTC1_L_00196001-03
1 73215U 26634SL  26070.40833333  .00000000  00000+0  00000-0 0  9990
2 73215  55.0000   0.0000 0000000   0.0000 180.0000 13.56072486    12
CTC1_L_00196001-04
1 73216U 25799QN  26070.40833333  .00000000  00000+0  00000-0 0  9992
2 73216  55.0000   0.0000 0000000   0.0000 270.0000 13.56072486    13
CTC1_L_00196002-01
1 73217U 26784OE  26070.40833333  .00000000  00000+0  00000-0 0  9998
2 73217  55.0000  12.0000 0000000   0.0000  12.0000 13.56072486    11
CTC1_L_00196002-02
1 73218U 24368SF  26070.40833333  .00000000  00000+0  00000-0 0  9995
2 73218  55.0000  12.0000 0000000   0.0000 102.0000 13.56072486    12
CTC1_L_00196002-03
1 73219U 26916OI  26070.40833333  .00000000  00000+0  00000-0 0  9997
2 73219  55.0000  12.0000 0000000   0.0000 192.0000 13.56072486    12
CTC1_L_00196002-04
1 73220U 24128KX  26070.40833333  .00000000  00000+0  00000-0 0  9992
2 73220  55.0000  12.0000 0000000   0.0000 282.0000 13.56072486    14
CTC1_L_00196003-01
1 73221U 22860IY  26070.40833333  .00000000  00000+0  00000-0 0  9994
2 73221  55.0000  24.0000 0000000   0.0000  24.0000 13.56072486    12
CTC1_L_00196003-02
1 73222U 24524GF  26070.40833333  .00000000  00000+0  00000-0 0  9994
2 73222  55.0000  24.0000 0000000   0.0000 114.0000 13.56072486    13
CTC1_L_00196003-03
1 73223U 23200FF  26070.40833333  .00000000  00000+0  00000-0 0  9995
2 73223  55.0000  24.0000 0000000   0.0000 204.0000 13.56072486    14
CTC1_L_00196003-04
1 73224U 23566OE  26070.40833333  .00000000  00000+0  00000-0 0  9991
2 73224  55.0000  24.0000 0000000   0.0000 294.0000 13.56072486    14
CTC1_L_00196004-01
1 73225U 25254GC  26070.40833333  .00000000  00000+0  00000-0 0  9998
2 73225  55.0000  36.0000 0000000   0.0000  36.0000 13.56072486    12
CTC1_L_00196004-02
1 73226U 22455EY  26070.40833333  .00000000  00000+0  00000-0 0  9999
2 73226  55.0000  36.0000 0000000   0.0000 126.0000 13.56072486    13
CTC1_L_00196004-03
1 73227U 23842M   26070.40833333  .00000000  00000+0  00000-0 0  9991
2 73227  55.0000  36.0000 0000000   0.0000 216.0000 13.56072486    14
CTC1_L_00196004-04
1 73228U 25151CL  26070.40833333  .00000000  00000+0  00000-0 0  9997
2 73228  55.0000  36.0000 0000000   0.0000 306.0000 13.56072486    15
CTC1_L_00196005-01
1 73229U 22624FK  26070.40833333  .00000000  00000+0  00000-0 0  9990
2 73229  55.0000  48.0000 0000000   0.0000  48.0000 13.56072486    12
CTC1_L_00196005-02
1 73230U 26347ZG  26070.40833333  .00000000  00000+0  00000-0 0  9998
2 73230  55.0000  48.0000 0000000   0.0000 138.0000 13.56072486    14
CTC1_L_00196005-03
1 73231U 25371KC  26070.40833333  .00000000  00000+0  00000-0 0  9995
2 73231  55.0000  48.0000 0000000   0.0000 228.0000 13.56072486    15
CTC1_L_00196005-04
1 73232U 22992RU  26070.40833333  .00000000  00000+0  00000-0 0  9992
2 73232  55.0000  48.0000 0000000   0.0000 318.0000 13.56072486    16
CTC1_L_00196006-01
1 73233U 22088UV  26070.40833333  .00000000  00000+0  00000-0 0  9999
2 73233  55.0000  60.0000 0000000   0.0000  60.0000 13.56072486    15
CTC1_L_00196006-02
1 73234U 26980FR  26070.40833333  .00000000  00000+0  00000-0 0  9995
2 73234  55.0000  60.0000 0000000   0.0000 150.0000 13.56072486    16
CTC1_L_00196006-03
1 73235U 22146UY  26070.40833333  .00000000  00000+0  00000-0 0  9996
2 73235  55.0000  60.0000 0000000   0.0000 240.0000 13.56072486    17
CTC1_L_00196006-04
1 73236U 25725NU  26070.40833333  .00000000  00000+0  00000-0 0  9993
2 73236  55.0000  60.0000 0000000   0.0000 330.0000 13.56072486    18
CTC1_L_00196007-01
1 73237U 26616XW  26070.40833333  .00000000  00000+0  00000-0 0  9994
2 73237  55.0000  72.0000 0000000   0.0000  72.0000 13.56072486    15
CTC1_L_00196007-02
1 73238U 22606HX  26070.40833333  .00000000  00000+0  00000-0 0  9990
2 73238  55.0000  72.0000 0000000   0.0000 162.0000 13.56072486    16
CTC1_L_00196007-03
1 73239U 24953NO  26070.40833333  .00000000  00000+0  00000-0 0  9998
2 73239  55.0000  72.0000 0000000   0.0000 252.0000 13.56072486    17
CTC1_L_00196007-04
1 73240U 23319FM  26070.40833333  .00000000  00000+0  00000-0 0  9995
2 73240  55.0000  72.0000 0000000   0.0000 342.0000 13.56072486    19
CTC1_L_00196008-01
1 73241U 24693OY  26070.40833333  .00000000  00000+0  00000-0 0  9992
2 73241  55.0000  84.0000 0000000   0.0000  84.0000 13.56072486    16
CTC1_L_00196008-02
1 73242U 24579LN  26070.40833333  .00000000  00000+0  00000-0 0  9996
2 73242  55.0000  84.0000 0000000   0.0000 174.0000 13.56072486    17
CTC1_L_00196008-03
1 73243U 26957XY  26070.40833333  .00000000  00000+0  00000-0 0  9999
2 73243  55.0000  84.0000 0000000   0.0000 264.0000 13.56072486    18
CTC1_L_00196008-04
1 73244U 22549JG  26070.40833333  .00000000  00000+0  00000-0 0  9993
2 73244  55.0000  84.0000 0000000   0.0000 354.0000 13.56072486    19
CTC1_L_00196009-01
1 73245U 25766XD  26070.40833333  .00000000  00000+0  00000-0 0  9998
2 73245  55.0000  96.0000 0000000   0.0000  96.0000 13.56072486    16
CTC1_L_00196009-02
1 73246U 24757IB  26070.40833333  .00000000  00000+0  00000-0 0  9998
2 73246  55.0000  96.0000 0000000   0.0000 186.0000 13.56072486    17
CTC1_L_00196009-03
1 73247U 23729CL  26070.40833333  .00000000  00000+0  00000-0 0  9997
2 73247  55.0000  96.0000 0000000   0.0000 276.0000 13.56072486    18
CTC1_L_00196009-04
1 73248U 22068UQ  26070.40833333  .00000000  00000+0  00000-0 0  9993
2 73248  55.0000  96.0000 0000000   0.0000   6.0000 13.56072486    10
CTC1_L_00196010-01
1 73249U 25283KO  26070.40833333  .00000000  00000+0  00000-0 0  9996
2 73249  55.0000 108.0000 0000000   0.0000 108.0000 13.56072486    18
CTC1_L_00196010-02
1 73250U 26665DB  26070.40833333  .00000000  00000+0  00000-0 0  9993
2 73250  55.0000 108.0000 0000000   0.0000 198.0000 13.56072486    19
CTC1_L_00196010-03
1 73251U 23853JK  26070.40833333  .00000000  00000+0  00000-0 0  9990
2 73251  55.0000 108.0000 0000000   0.0000 288.0000 13.56072486    10
CTC1_L_00196010-04
1 73252U 22629HQ  26070.40833333  .00000000  00000+0  00000-0 0  9991
2 73252  55.0000 108.0000 0000000   0.0000  18.0000 13.56072486    12
CTC1_L_00196011-01
1 73253U 23040CB  26070.40833333  .00000000  00000+0  00000-0 0  9990
2 73253  55.0000 120.0000 0000000   0.0000 120.0000 13.56072486    11
CTC1_L_00196011-02
1 73254U 23776WT  26070.40833333  .00000000  00000+0  00000-0 0  9997
2 73254  55.0000 120.0000 0000000   0.0000 210.0000 13.56072486    12
CTC1_L_00196011-03
1 73255U 23494JX  26070.40833333  .00000000  00000+0  00000-0 0  9995
2 73255  55.0000 120.0000 0000000   0.0000 300.0000 13.56072486    13
CTC1_L_00196011-04
1 73256U 25307EV  26070.40833333  .00000000  00000+0  00000-0 0  9991
2 73256  55.0000 120.0000 0000000   0.0000  30.0000 13.56072486    14
CTC1_L_00196012-01
1 73257U 23267PE  26070.40833333  .00000000  00000+0  00000-0 0  9995
2 73257  55.0000 132.0000 0000000   0.0000 132.0000 13.56072486    11
CTC1_L_00196012-02
1 73258U 23761GU  26070.40833333  .00000000  00000+0  00000-0 0  9995
2 73258  55.0000 132.0000 0000000   0.0000 222.0000 13.56072486    12
CTC1_L_00196012-03
1 73259U 24682IZ  26070.40833333  .00000000  00000+0  00000-0 0  9999
2 73259  55.0000 132.0000 0000000   0.0000 312.0000 13.56072486    13
CTC1_L_00196012-04
1 73260U 26723MJ  26070.40833333  .00000000  00000+0  00000-0 0  9999
2 73260  55.0000 132.0000 0000000   0.0000  42.0000 13.56072486    15
CTC1_L_00196013-01
1 73261U 24109BL  26070.40833333  .00000000  00000+0  00000-0 0  9996
2 73261  55.0000 144.0000 0000000   0.0000 144.0000 13.56072486    12
CTC1_L_00196013-02
1 73262U 24956VK  26070.40833333  .00000000  00000+0  00000-0 0  9997
2 73262  55.0000 144.0000 0000000   0.0000 234.0000 13.56072486    13
CTC1_L_00196013-03
1 73263U 23947VN  26070.40833333  .00000000  00000+0  00000-0 0  9997
2 73263  55.0000 144.0000 0000000   0.0000 324.0000 13.56072486    14
CTC1_L_00196013-04
1 73264U 24596XH  26070.40833333  .00000000  00000+0  00000-0 0  9999
2 73264  55.0000 144.0000 0000000   0.0000  54.0000 13.56072486    15
CTC1_L_00196014-01
1 73265U 23366CQ  26070.40833333  .00000000  00000+0  00000-0 0  9994
2 73265  55.0000 156.0000 0000000   0.0000 156.0000 13.56072486    12
CTC1_L_00196014-02
1 73266U 26345EO  26070.40833333  .00000000  00000+0  00000-0 0  9995
2 73266  55.0000 156.0000 0000000   0.0000 246.0000 13.56072486    13
CTC1_L_00196014-03
1 73267U 25535O   26070.40833333  .00000000  00000+0  00000-0 0  9996
2 73267  55.0000 156.0000 0000000   0.0000 336.0000 13.56072486    14
CTC1_L_00196014-04
1 73268U 24597FE  26070.40833333  .00000000  00000+0  00000-0 0  9994
2 73268  55.0000 156.0000 0000000   0.0000  66.0000 13.56072486    15
CTC1_L_00196015-01
1 73269U 25483FD  26070.40833333  .00000000  00000+0  00000-0 0  9990
2 73269  55.0000 168.0000 0000000   0.0000 168.0000 13.56072486    12
CTC1_L_00196015-02
1 73270U 22636FH  26070.40833333  .00000000  00000+0  00000-0 0  9999
2 73270  55.0000 168.0000 0000000   0.0000 258.0000 13.56072486    14
CTC1_L_00196015-03
1 73271U 26796RC  26070.40833333  .00000000  00000+0  00000-0 0  9991
2 73271  55.0000 168.0000 0000000   0.0000 348.0000 13.56072486    15
CTC1_L_00196015-04
1 73272U 26241QZ  26070.40833333  .00000000  00000+0  00000-0 0  9997
2 73272  55.0000 168.0000 0000000   0.0000  78.0000 13.56072486    16
CTC1_L_00196016-01
1 73273U 24583SC  26070.40833333  .00000000  00000+0  00000-0 0  9995
2 73273  55.0000 180.0000 0000000   0.0000 180.0000 13.56072486    15
CTC1_L_00196016-02
1 73274U 23099UT  26070.40833333  .00000000  00000+0  00000-0 0  9997
2 73274  55.0000 180.0000 0000000   0.0000 270.0000 13.56072486    16
